EUTELSAT 21B            
1 38992U 12062B   25355.91084310  .00000152  00000+0  00000+0 0  9994
2 38992   0.0675 342.8707 0003261 292.4757 164.8711  1.00269691 48059
EUTELSAT 70B            
1 39020U 12069A   25356.13452219 -.00000021  00000+0  00000+0 0  9992
2 39020   0.0620   8.6821 0004239 246.5078 314.6710  1.00271606 47735
EUTELSAT 117 WEST A     
1 39122U 13012A   25356.15808896  .00000009  00000+0  00000+0 0  9997
2 39122   0.0262 307.6544 0002614 325.7894 117.6484  1.00270618 46656
EUTELSAT 7B             
1 39163U 13022A   25356.16294588  .00000070  00000+0  00000+0 0  9999
2 39163   0.0652   2.8658 0004424 319.3694 194.3909  1.00271150 46175
EXPRESS-AT1             
1 39612U 14010A   25356.06034407  .00000000  00000+0  00000+0 0  9990
2 39612   0.0237 345.2745 0000740 151.4807  31.8350  1.00271765 43042
EXPRESS-AT2             
1 39613U 14010B   25356.21962940 -.00000259  00000+0  00000+0 0  9997
2 39613   0.0181 291.7658 0001432 349.0197  29.1578  1.00273914 42729
EUTELSAT 3B             
1 39773U 14030A   25356.04985734  .00000042  00000+0  00000+0 0  9992
2 39773   0.0612  10.0984 0004142 223.9018 237.9083  1.00272787 42291
EUTELSAT 115 WEST B     
1 40425U 15010B   25355.59847865 -.00000002  00000+0  00000+0 0  9995
2 40425   0.0122 156.3185 0000332 153.7711 240.8740  1.00270264 39610
